NORAD_CAT_ID,OBJECT_NAME,OBJECT_TYPE,EPOCH,MEAN_MOTION,ECCENTRICITY,INCLINATION,RA_OF_ASC_NODE,ARG_OF_PERICENTER,MEAN_ANOMALY,BSTAR,MEAN_MOTION_DOT,MEAN_MOTION_DDOT,TLE_LINE0,TLE_LINE1,TLE_LINE2,SEMIMAJOR_AXIS,PERIOD,APOGEE,PERIGEE,DECAYED
53567.0,STARLINK-4585,PAYLOAD,2023-01-12 18:35:21,15.08835038,0.0001768,53.2184,185.362,81.5304,278.5888,-3.6473e-06,-3.46e-06,0.0,0 STARLINK-4585,1 53567U 22101AS  23012.77455391 -.00000346  00000-0 -36473-5 0  9994,2 53567  53.2184 185.3620 0001768  81.5304 278.5888 15.08835038 22549,6917.896,95.438,540.984,538.5369999999998,0.0
53567.0,STARLINK-4585,PAYLOAD,2023-01-12 21:46:07,15.08836192,0.0001784,53.2185,184.7673,81.3522,278.7672,4.9779e-06,-2.09e-06,0.0,0 STARLINK-4585,1 53567U 22101AS  23012.90703332 -.00000209  00000-0  49779-5 0  9990,2 53567  53.2185 184.7673 0001784  81.3522 278.7672 15.08836192 22566,6917.892,95.438,540.991,538.523,0.0
53567.0,STARLINK-4585,PAYLOAD,2023-01-13 04:07:40,15.08833442,0.0001807,53.2186,183.5778,80.8328,279.2869,-2.4474e-06,-3.27e-06,0.0,0 STARLINK-4585,1 53567U 22101AS  23013.17199608 -.00000327  00000-0 -24474-5 0  9992,2 53567  53.2186 183.5778 0001807  80.8328 279.2869 15.08833442 22608,6917.9,95.438,541.015,538.515,0.0
53567.0,STARLINK-4585,PAYLOAD,2023-01-13 21:36:54,15.08843278,0.0001819,53.2186,180.3069,81.4851,278.6347,3.4573e-05,2.62e-06,0.0,0 STARLINK-4585,1 53567U 22101AS  23013.90062986  .00000262  00000-0  34573-4 0  9997,2 53567  53.2186 180.3069 0001819  81.4851 278.6347 15.08843278 22711,6917.87,95.437,540.994,538.477,0.0
53567.0,STARLINK-4585,PAYLOAD,2023-01-14 03:58:27,15.08833665,0.0001868,53.2192,179.1174,85.1107,275.0099,-1.7877000000000002e-05,-5.73e-06,0.0,0 STARLINK-4585,1 53567U 22101AS  23014.16559787 -.00000573  00000-0 -17877-4 0  9991,2 53567  53.2192 179.1174 0001868  85.1107 275.0099 15.08833665 22758,6917.9,95.438,541.057,538.472,0.0
53567.0,STARLINK-4585,PAYLOAD,2023-01-14 19:52:18,15.08839869,0.0001848,53.2191,176.1434,85.7654,274.3549,5.8838e-05,6.48e-06,0.0,0 STARLINK-4585,1 53567U 22101AS  23014.82799197  .00000648  00000-0  58838-4 0  9998,2 53567  53.2191 176.1434 0001848  85.7654 274.3549 15.08839869 22859,6917.880999999999,95.438,541.024,538.467,0.0
53567.0,STARLINK-4585,PAYLOAD,2023-01-15 10:10:47,15.08835927,0.000159,53.2193,173.4676,87.8378,272.2796,1.7385e-05,-1.1e-07,0.0,0 STARLINK-4585,1 53567U 22101AS  23015.42415517 -.00000011  00000-0  17385-4 0  9993,2 53567  53.2193 173.4676 0001590  87.8378 272.2796 15.08835927 22941,6917.893,95.438,540.8580000000001,538.658,0.0
53567.0,STARLINK-4585,PAYLOAD,2023-01-15 18:07:43,15.08834106,0.0001669,53.2196,171.9795,90.0042,270.1141,-5.9e-05,-1.227e-05,0.0,0 STARLINK-4585,1 53567U 22101AS  23015.75536083 -.00001227  00000-0 -59000-4 0  9992,2 53567  53.2196 171.9795 0001669  90.0042 270.1141 15.08834106 22994,6917.898,95.438,540.918,538.609,0.0
53567.0,STARLINK-4585,PAYLOAD,2023-01-16 03:40:01,15.08834998,0.0001703,53.2198,170.1966,89.0772,271.0415,2.4638e-05,1.04e-06,0.0,0 STARLINK-4585,1 53567U 22101AS  23016.15279862  .00000104  00000-0  24638-4 0  9996,2 53567  53.2198 170.1966 0001703  89.0772 271.0415 15.08834998 23055,6917.896,95.438,540.939,538.5830000000001,0.0
53567.0,STARLINK-4585,PAYLOAD,2023-01-16 17:58:29,15.08850175,0.0001574,53.2197,167.5206,89.5465,270.5707,5.4662e-05,5.82e-06,0.0,0 STARLINK-4585,1 53567U 22101AS  23016.74894742  .00000582  00000-0  54662-4 0  9991,2 53567  53.2197 167.5206 0001574  89.5465 270.5707 15.08850175 23144,6917.849,95.437,540.803,538.625,0.0
53567.0,STARLINK-4585,PAYLOAD,2023-01-17 03:30:48,15.08841502,0.0001524,53.22,165.738,89.5457,270.571,2.0566e-05,3.9e-07,0.0,0 STARLINK-4585,1 53567U 22101AS  23017.14639244  .00000039  00000-0  20566-4 0  9993,2 53567  53.2200 165.7380 0001524  89.5457 270.5710 15.08841502 23203,6917.876,95.437,540.795,538.687,0.0
53567.0,STARLINK-4585,PAYLOAD,2023-01-17 09:52:21,15.08834144,0.0001824,53.2205,164.5482,90.8706,269.2495,2.5453e-05,1.17e-06,0.0,0 STARLINK-4585,1 53567U 22101AS  23017.41135850  .00000117  00000-0  25453-4 0  9994,2 53567  53.2205 164.5482 0001824  90.8706 269.2495 15.08834144 23246,6917.898,95.438,541.025,538.501,0.0
53567.0,STARLINK-4585,PAYLOAD,2023-01-17 17:49:17,15.08830409,0.0001811999999999,53.2196,163.0612,91.0872,269.0328,2.9763000000000003e-05,1.85e-06,0.0,0 STARLINK-4585,1 53567U 22101AS  23017.74256208  .00000185  00000-0  29763-4 0  9994,2 53567  53.2196 163.0612 0001812  91.0872 269.0328 15.08830409 23296,6917.91,95.438,541.028,538.521,0.0
53567.0,STARLINK-4585,PAYLOAD,2023-01-18 09:43:08,15.08840946,0.0001766999999999,53.2196,160.0881,92.3298,267.7896,-9.1998e-06,-4.35e-06,0.0,0 STARLINK-4585,1 53567U 22101AS  23018.40495830 -.00000435  00000-0 -91998-5 0  9994,2 53567  53.2196 160.0881 0001767  92.3298 267.7896 15.08840946 23399,6917.877,95.437,540.965,538.52,0.0
53567.0,STARLINK-4585,PAYLOAD,2023-01-18 16:04:40,15.08850509,0.0001818,53.2186,158.8989,91.9341,268.186,6.2039e-05,7.000000000000001e-06,0.0,0 STARLINK-4585,1 53567U 22101AS  23018.66990925  .00000700  00000-0  62039-4 0  9993,2 53567  53.2186 158.8989 0001818  91.9341 268.1860 15.08850509 23430,6917.848000000001,95.437,540.971,538.456,0.0
53567.0,STARLINK-4585,PAYLOAD,2023-01-19 09:33:56,15.08829874,0.0001614,53.2191,155.6282,89.34100000000001,270.7767,-5.9336e-06,-3.82e-06,0.0,0 STARLINK-4585,1 53567U 22101AS  23019.39856589 -.00000382  00000-0 -59336-5 0  9996,2 53567  53.2191 155.6282 0001614  89.3410 270.7767 15.08829874 23547,6917.911,95.438,540.893,538.66,0.0
53567.0,STARLINK-4585,PAYLOAD,2023-01-19 17:30:51,15.08839414,0.0001283,53.2216,154.1404,90.165,269.9489,-1.3121e-06,-3.09e-06,0.0,0 STARLINK-4585,1 53567U 22101AS  23019.72976033 -.00000309  00000-0 -13121-5 0  9991,2 53567  53.2216 154.1404 0001283  90.1650 269.9489 15.08839414 23590,6917.882,95.438,540.635,538.86,0.0
53567.0,STARLINK-4585,PAYLOAD,2023-01-20 11:00:05,15.08841736,0.0001228,53.2203,150.8705,95.6596,264.4536,-5.6786e-05,-1.192e-05,0.0,0 STARLINK-4585,1 53567U 22101AS  23020.45840228 -.00001192  00000-0 -56786-4 0  9993,2 53567  53.2203 150.8705 0001228  95.6596 264.4536 15.08841736 23707,6917.875,95.437,540.59,538.891,0.0
53567.0,STARLINK-4585,PAYLOAD,2023-01-20 15:46:14,15.08852826,0.0001265,53.2197,149.9794,90.8312,269.2825,3.7579e-05,3.1e-06,0.0,0 STARLINK-4585,1 53567U 22101AS  23020.65711077  .00000310  00000-0  37579-4 0  9992,2 53567  53.2197 149.9794 0001265  90.8312 269.2825 15.08852826 23739,6917.841,95.437,540.581,538.831,0.0
53567.0,STARLINK-4585,PAYLOAD,2023-01-21 02:53:56,15.08838391,0.0001226,53.22,147.8995,88.0153,272.098,7.6783e-05,9.34e-06,0.0,0 STARLINK-4585,1 53567U 22101AS  23021.12079817  .00000934  00000-0  76783-4 0  9996,2 53567  53.2200 147.8995 0001226  88.0153 272.0980 15.08838391 23806,6917.885,95.438,540.5980000000001,538.9019999999999,0.0
53567.0,STARLINK-4585,PAYLOAD,2023-01-22 10:41:40,15.0883668,9.24e-05,53.2197,141.9524,91.6269,268.4829,-4.81e-06,-3.64e-06,0.0,0 STARLINK-4585,1 53567U 22101AS  23022.44560356 -.00000364  00000-0 -48100-5 0  9997,2 53567  53.2197 141.9524 0000924  91.6269 268.4829 15.08836680 24009,6917.891,95.438,540.395,539.116,0.0
53567.0,STARLINK-4585,PAYLOAD,2023-01-22 15:27:48,15.08848657,0.0001034,53.22,141.0593,81.5196,278.5914,2.2225e-05,6.6e-07,0.0,0 STARLINK-4585,1 53567U 22101AS  23022.64431605  .00000066  00000-0  22225-4 0  9999,2 53567  53.2200 141.0593 0001034  81.5196 278.5914 15.08848657 24038,6917.854,95.437,540.434,539.004,0.0
53567.0,STARLINK-4585,PAYLOAD,2023-01-23 01:00:08,15.08839904,0.0001042999999999,53.2216,139.2768,68.6127,291.4977,-3.0327e-05,-7.699999999999999e-06,0.0,0 STARLINK-4585,1 53567U 22101AS  23023.04176294 -.00000770  00000-0 -30327-4 0  9990,2 53567  53.2216 139.2768 0001043  68.6127 291.4977 15.08839904 24092,6917.880999999999,95.438,540.467,539.024,0.0
53567.0,STARLINK-4585,PAYLOAD,2023-01-23 10:32:27,15.08829916,0.0001056,53.2195,137.491,77.6894,282.4216,1.8787e-05,1.1e-07,0.0,0 STARLINK-4585,1 53567U 22101AS  23023.43920832  .00000011  00000-0  18787-4 0  9990,2 53567  53.2195 137.4910 0001056  77.6894 282.4216 15.08829916 24157,6917.911,95.438,540.507,539.0459999999999,0.0
53567.0,STARLINK-4585,PAYLOAD,2023-01-24 10:23:14,15.0884019,8.37e-05,53.2196,133.0317,80.9648,279.1439,3.7248e-05,3.05e-06,0.0,0 STARLINK-4585,1 53567U 22101AS  23024.43280223  .00000305  00000-0  37248-4 0  9993,2 53567  53.2196 133.0317 0000837  80.9648 279.1439 15.08840190 24305,6917.88,95.438,540.3240000000001,539.1659999999999,0.0
53567.0,STARLINK-4585,PAYLOAD,2023-01-25 11:49:25,15.0882874,0.000108,53.2209,128.2738,98.5281,261.5833,4.2028000000000005e-05,3.81e-06,0.0,0 STARLINK-4585,1 53567U 22101AS  23025.49265209  .00000381  00000-0  42028-4 0  9993,2 53567  53.2209 128.2738 0001080  98.5281 261.5833 15.08828740 24469,6917.915,95.438,540.5269999999999,539.033,0.0
53567.0,STARLINK-4585,PAYLOAD,2023-01-25 13:24:48,15.08835351,9.45e-05,53.2199,127.9763,88.59,271.52,-1.2003e-06,-3.07e-06,0.0,0 STARLINK-4585,1 53567U 22101AS  23025.55888889 -.00000307  00000-0 -12003-5 0  9996,2 53567  53.2199 127.9763 0000945  88.5900 271.5200 15.08835351 24473,6917.895,95.438,540.413,539.106,0.0
53567.0,STARLINK-4585,PAYLOAD,2023-01-26 13:15:34,15.08848619,0.0001006,53.2194,123.5154,89.8853,270.2255,2.124e-05,5e-07,0.0,0 STARLINK-4585,1 53567U 22101AS  23026.55248069  .00000050  00000-0  21240-4 0  9992,2 53567  53.2194 123.5154 0001006  89.8853 270.2255 15.08848619 24628,6917.854,95.437,540.415,539.023,0.0
53567.0,STARLINK-4585,PAYLOAD,2023-01-27 11:30:59,15.08833147,0.0001152,53.22,119.3533,88.7004,271.41200000000003,4.0624e-06,-2.23e-06,0.0,0 STARLINK-4585,1 53567U 22101AS  23027.47985202 -.00000223  00000-0  40624-5 0  9992,2 53567  53.2200 119.3533 0001152  88.7004 271.4120 15.08833147 24767,6917.901,95.438,540.563,538.969,0.0
